STARLINK-2115_new
1 17394C 21005AX  21326.11960090  .00008068  00000-0  54044-3 0  3261
2 17394  53.0519 228.2105 0001999  67.5778  73.8084 15.06397166    15
STARLINK-2115_old
1 27394C 21005AX  21325.12484267  .00008743  00000-0  58583-3 0  3259
2 27394  53.0523 232.6761 0001977  65.5743  78.2262 15.06384939    14
